IRIDIUM 144             
1 43249U 18030A   24093.89258585  .00000097  00000+0  27400-4 0  9994
2 43249  86.3914 266.9356 0002138  90.0712 270.0729 14.34218020314713
IRIDIUM 149             
1 43250U 18030B   24093.75939085  .00000055  00000+0  12636-4 0  9991
2 43250  86.3914 266.9673 0002017  87.9182 272.2244 14.34217938314712
IRIDIUM 157             
1 43251U 18030C   24093.84818595  .00000180  00000+0  57283-4 0  9990
2 43251  86.3916 266.9654 0001943  98.8237 261.3179 14.34218802314709
IRIDIUM 140             
1 43252U 18030D   24093.86721457  .00000186  00000+0  59400-4 0  9992
2 43252  86.3917 266.9721 0002342  86.5069 273.6395 14.34217530314766
IRIDIUM 145             
1 43253U 18030E   24093.92430095  .00000186  00000+0  59375-4 0  9996
2 43253  86.3917 266.9220 0002127  83.2633 276.8804 14.34217993314700
IRIDIUM 146             
1 43254U 18030F   24093.83550358  .00000184  00000+0  58697-4 0  9996
2 43254  86.3915 266.9743 0002100  83.9721 276.1714 14.34217829314706
IRIDIUM 148             
1 43255U 18030G   24093.87355953  .00000174  00000+0  55165-4 0  9991
2 43255  86.3916 266.9892 0001780  86.9700 273.1699 14.34217853314746
IRIDIUM 142             
1 43256U 18030H   24093.84184584  .00000081  00000+0  21750-4 0  9999
2 43256  86.3913 266.9207 0002029  85.4654 274.6773 14.34217644314706
